<?xml version="1.0" encoding="UTF-8"?>
<gpx version="1.1" creator="OS Maps" xmlns="http://www.topografix.com/GPX/1/1" xmlns:xsi="http://www.w3.org/2001/XMLSchema-instance" xsi:schemaLocation="http://www.topografix.com/GPX/1/1 http://www.topografix.com/GPX/1/1/gpx.xsd" xmlns:os="https://ordnancesurvey.co.uk/public/schema/route/0.1"><metadata><name>Shap Postal Path — long round</name><desc></desc><bounds minlat="54.477890" minlon="-2.781290" maxlat="54.533910" maxlon="-2.676900"/><extensions><os:activity>ON_FOOT_RUNNING</os:activity><os:elevation_ascent>569.96</os:elevation_ascent><os:difficulty>NOTSET</os:difficulty><os:visibility>PRIVATE</os:visibility></extensions></metadata><wpt lat="54.530675" lon="-2.677442"><ele>252.790000</ele></wpt><wpt lat="54.530710" lon="-2.677440"><ele>252.860000</ele></wpt><trk><trkseg><trkpt lat="54.530675" lon="-2.677442"/><trkpt lat="54.530680" lon="-2.677410"/><trkpt lat="54.531020" lon="-2.677630"/><trkpt lat="54.530870" lon="-2.678380"/><trkpt lat="54.530840" lon="-2.678640"/><trkpt lat="54.530850" lon="-2.678530"/><trkpt lat="54.530620" lon="-2.678470"/><trkpt lat="54.529700" lon="-2.681750"/><trkpt lat="54.528840" lon="-2.683940"/><trkpt lat="54.528860" lon="-2.683890"/><trkpt lat="54.529200" lon="-2.684030"/><trkpt lat="54.529240" lon="-2.684090"/><trkpt lat="54.529200" lon="-2.684160"/><trkpt lat="54.528940" lon="-2.685290"/><trkpt lat="54.528890" lon="-2.685410"/><trkpt lat="54.529120" lon="-2.685620"/><trkpt lat="54.529480" lon="-2.686220"/><trkpt lat="54.529910" lon="-2.687020"/><trkpt lat="54.530060" lon="-2.687380"/><trkpt lat="54.530760" lon="-2.688360"/><trkpt lat="54.531650" lon="-2.689120"/><trkpt lat="54.532240" lon="-2.689590"/><trkpt lat="54.532240" lon="-2.689690"/><trkpt lat="54.532240" lon="-2.689450"/><trkpt lat="54.532290" lon="-2.689500"/><trkpt lat="54.532310" lon="-2.690570"/><trkpt lat="54.532390" lon="-2.691200"/><trkpt lat="54.532390" lon="-2.691780"/><trkpt lat="54.532200" lon="-2.692880"/><trkpt lat="54.532120" lon="-2.693650"/><trkpt lat="54.532050" lon="-2.695810"/><trkpt lat="54.532050" lon="-2.696450"/><trkpt lat="54.531880" lon="-2.696810"/><trkpt lat="54.531820" lon="-2.697020"/><trkpt lat="54.531770" lon="-2.697390"/><trkpt lat="54.531750" lon="-2.698370"/><trkpt lat="54.531720" lon="-2.698610"/><trkpt lat="54.531480" lon="-2.699770"/><trkpt lat="54.531370" lon="-2.700060"/><trkpt lat="54.531370" lon="-2.700600"/><trkpt lat="54.531400" lon="-2.700910"/><trkpt lat="54.531370" lon="-2.701000"/><trkpt lat="54.531290" lon="-2.701160"/><trkpt lat="54.531220" lon="-2.701160"/><trkpt lat="54.531170" lon="-2.701360"/><trkpt lat="54.531240" lon="-2.701390"/><trkpt lat="54.531350" lon="-2.701570"/><trkpt lat="54.531640" lon="-2.701550"/><trkpt lat="54.531810" lon="-2.701340"/><trkpt lat="54.532280" lon="-2.701890"/><trkpt lat="54.533420" lon="-2.703840"/><trkpt lat="54.533590" lon="-2.704190"/><trkpt lat="54.533230" lon="-2.705680"/><trkpt lat="54.533170" lon="-2.706260"/><trkpt lat="54.533280" lon="-2.708210"/><trkpt lat="54.533580" lon="-2.710140"/><trkpt lat="54.533620" lon="-2.710840"/><trkpt lat="54.533710" lon="-2.711100"/><trkpt lat="54.533800" lon="-2.711550"/><trkpt lat="54.533910" lon="-2.712570"/><trkpt lat="54.533910" lon="-2.712980"/><trkpt lat="54.533850" lon="-2.713680"/><trkpt lat="54.533770" lon="-2.714390"/><trkpt lat="54.533750" lon="-2.714450"/><trkpt lat="54.533000" lon="-2.713950"/><trkpt lat="54.531720" lon="-2.712830"/><trkpt lat="54.531570" lon="-2.712800"/><trkpt lat="54.530330" lon="-2.712940"/><trkpt lat="54.522946" lon="-2.715842"/><trkpt lat="54.523307" lon="-2.721958"/><trkpt lat="54.523280" lon="-2.721980"/><trkpt lat="54.523330" lon="-2.722050"/><trkpt lat="54.523500" lon="-2.722070"/><trkpt lat="54.523710" lon="-2.722620"/><trkpt lat="54.523740" lon="-2.722810"/><trkpt lat="54.523650" lon="-2.723150"/><trkpt lat="54.523320" lon="-2.723930"/><trkpt lat="54.523410" lon="-2.725400"/><trkpt lat="54.522990" lon="-2.727610"/><trkpt lat="54.522980" lon="-2.727750"/><trkpt lat="54.522910" lon="-2.727810"/><trkpt lat="54.522900" lon="-2.727920"/><trkpt lat="54.522970" lon="-2.728160"/><trkpt lat="54.523100" lon="-2.728290"/><trkpt lat="54.523120" lon="-2.728390"/><trkpt lat="54.523120" lon="-2.728640"/><trkpt lat="54.523010" lon="-2.728840"/><trkpt lat="54.522880" lon="-2.728910"/><trkpt lat="54.522890" lon="-2.730210"/><trkpt lat="54.522690" lon="-2.730840"/><trkpt lat="54.521780" lon="-2.732210"/><trkpt lat="54.521630" lon="-2.732540"/><trkpt lat="54.521590" lon="-2.732860"/><trkpt lat="54.521410" lon="-2.733060"/><trkpt lat="54.520490" lon="-2.735090"/><trkpt lat="54.520010" lon="-2.736320"/><trkpt lat="54.519960" lon="-2.736410"/><trkpt lat="54.519530" lon="-2.736850"/><trkpt lat="54.519290" lon="-2.737010"/><trkpt lat="54.519100" lon="-2.737040"/><trkpt lat="54.519030" lon="-2.736970"/><trkpt lat="54.518880" lon="-2.737340"/><trkpt lat="54.518720" lon="-2.737520"/><trkpt lat="54.518440" lon="-2.737760"/><trkpt lat="54.518300" lon="-2.737850"/><trkpt lat="54.518210" lon="-2.737940"/><trkpt lat="54.518250" lon="-2.738310"/><trkpt lat="54.518240" lon="-2.738410"/><trkpt lat="54.518190" lon="-2.738490"/><trkpt lat="54.518020" lon="-2.738570"/><trkpt lat="54.517980" lon="-2.738630"/><trkpt lat="54.517950" lon="-2.738700"/><trkpt lat="54.517890" lon="-2.738970"/><trkpt lat="54.517440" lon="-2.739410"/><trkpt lat="54.517480" lon="-2.739860"/><trkpt lat="54.517460" lon="-2.740320"/><trkpt lat="54.517360" lon="-2.740680"/><trkpt lat="54.517380" lon="-2.741200"/><trkpt lat="54.517180" lon="-2.741280"/><trkpt lat="54.516620" lon="-2.742040"/><trkpt lat="54.516440" lon="-2.742430"/><trkpt lat="54.516340" lon="-2.742580"/><trkpt lat="54.515990" lon="-2.742850"/><trkpt lat="54.515450" lon="-2.743510"/><trkpt lat="54.515300" lon="-2.743960"/><trkpt lat="54.515200" lon="-2.744140"/><trkpt lat="54.515030" lon="-2.744300"/><trkpt lat="54.514910" lon="-2.744510"/><trkpt lat="54.514660" lon="-2.744850"/><trkpt lat="54.514360" lon="-2.745470"/><trkpt lat="54.514060" lon="-2.745960"/><trkpt lat="54.513950" lon="-2.746080"/><trkpt lat="54.513850" lon="-2.746350"/><trkpt lat="54.513590" lon="-2.746750"/><trkpt lat="54.513450" lon="-2.747060"/><trkpt lat="54.513310" lon="-2.747450"/><trkpt lat="54.513160" lon="-2.747790"/><trkpt lat="54.513030" lon="-2.748280"/><trkpt lat="54.512780" lon="-2.748860"/><trkpt lat="54.512590" lon="-2.749140"/><trkpt lat="54.512400" lon="-2.749910"/><trkpt lat="54.512350" lon="-2.750050"/><trkpt lat="54.511880" lon="-2.750860"/><trkpt lat="54.511790" lon="-2.751110"/><trkpt lat="54.511760" lon="-2.751270"/><trkpt lat="54.511750" lon="-2.751590"/><trkpt lat="54.511730" lon="-2.751690"/><trkpt lat="54.511680" lon="-2.751810"/><trkpt lat="54.511240" lon="-2.752610"/><trkpt lat="54.511150" lon="-2.752700"/><trkpt lat="54.511010" lon="-2.753070"/><trkpt lat="54.511000" lon="-2.753130"/><trkpt lat="54.509350" lon="-2.755735"/><trkpt lat="54.505405" lon="-2.764174"/><trkpt lat="54.505890" lon="-2.766550"/><trkpt lat="54.505780" lon="-2.766670"/><trkpt lat="54.505710" lon="-2.766700"/><trkpt lat="54.505480" lon="-2.766730"/><trkpt lat="54.505370" lon="-2.766770"/><trkpt lat="54.505280" lon="-2.766890"/><trkpt lat="54.505180" lon="-2.766920"/><trkpt lat="54.505050" lon="-2.766880"/><trkpt lat="54.504980" lon="-2.766830"/><trkpt lat="54.504870" lon="-2.766830"/><trkpt lat="54.504560" lon="-2.766910"/><trkpt lat="54.504440" lon="-2.767000"/><trkpt lat="54.504060" lon="-2.767350"/><trkpt lat="54.503990" lon="-2.767490"/><trkpt lat="54.503920" lon="-2.767580"/><trkpt lat="54.503690" lon="-2.767620"/><trkpt lat="54.503540" lon="-2.767830"/><trkpt lat="54.503340" lon="-2.768150"/><trkpt lat="54.502980" lon="-2.768540"/><trkpt lat="54.502770" lon="-2.768580"/><trkpt lat="54.502660" lon="-2.768650"/><trkpt lat="54.502590" lon="-2.768660"/><trkpt lat="54.502160" lon="-2.768610"/><trkpt lat="54.502040" lon="-2.768540"/><trkpt lat="54.501900" lon="-2.768510"/><trkpt lat="54.501600" lon="-2.768610"/><trkpt lat="54.501440" lon="-2.768550"/><trkpt lat="54.501100" lon="-2.768580"/><trkpt lat="54.500950" lon="-2.768500"/><trkpt lat="54.500830" lon="-2.768360"/><trkpt lat="54.500440" lon="-2.768370"/><trkpt lat="54.500170" lon="-2.768500"/><trkpt lat="54.499990" lon="-2.768450"/><trkpt lat="54.499810" lon="-2.768350"/><trkpt lat="54.499420" lon="-2.768470"/><trkpt lat="54.499340" lon="-2.768530"/><trkpt lat="54.499230" lon="-2.768520"/><trkpt lat="54.499130" lon="-2.768450"/><trkpt lat="54.498880" lon="-2.768080"/><trkpt lat="54.498760" lon="-2.768120"/><trkpt lat="54.498610" lon="-2.768300"/><trkpt lat="54.498230" lon="-2.768040"/><trkpt lat="54.497840" lon="-2.768030"/><trkpt lat="54.497560" lon="-2.767920"/><trkpt lat="54.497370" lon="-2.767580"/><trkpt lat="54.497060" lon="-2.767320"/><trkpt lat="54.496990" lon="-2.767170"/><trkpt lat="54.496950" lon="-2.766990"/><trkpt lat="54.496940" lon="-2.766710"/><trkpt lat="54.496830" lon="-2.766560"/><trkpt lat="54.496610" lon="-2.766480"/><trkpt lat="54.496570" lon="-2.766390"/><trkpt lat="54.496160" lon="-2.766510"/><trkpt lat="54.496030" lon="-2.766360"/><trkpt lat="54.495970" lon="-2.766140"/><trkpt lat="54.495950" lon="-2.765950"/><trkpt lat="54.495900" lon="-2.765870"/><trkpt lat="54.495990" lon="-2.765520"/><trkpt lat="54.495950" lon="-2.765360"/><trkpt lat="54.495860" lon="-2.765180"/><trkpt lat="54.495940" lon="-2.764910"/><trkpt lat="54.495870" lon="-2.764910"/><trkpt lat="54.495670" lon="-2.764780"/><trkpt lat="54.495570" lon="-2.764790"/><trkpt lat="54.495510" lon="-2.764830"/><trkpt lat="54.495480" lon="-2.764830"/><trkpt lat="54.495450" lon="-2.764800"/><trkpt lat="54.495230" lon="-2.764720"/><trkpt lat="54.495170" lon="-2.764650"/><trkpt lat="54.495110" lon="-2.764500"/><trkpt lat="54.495080" lon="-2.764460"/><trkpt lat="54.494990" lon="-2.764000"/><trkpt lat="54.494920" lon="-2.763820"/><trkpt lat="54.494930" lon="-2.763660"/><trkpt lat="54.494960" lon="-2.763560"/><trkpt lat="54.495110" lon="-2.763320"/><trkpt lat="54.495120" lon="-2.763270"/><trkpt lat="54.495090" lon="-2.763250"/><trkpt lat="54.495010" lon="-2.763290"/><trkpt lat="54.494790" lon="-2.763270"/><trkpt lat="54.494740" lon="-2.763160"/><trkpt lat="54.494640" lon="-2.763160"/><trkpt lat="54.494570" lon="-2.763200"/><trkpt lat="54.494440" lon="-2.763400"/><trkpt lat="54.494380" lon="-2.763410"/><trkpt lat="54.494130" lon="-2.763260"/><trkpt lat="54.493840" lon="-2.763160"/><trkpt lat="54.493760" lon="-2.763230"/><trkpt lat="54.493530" lon="-2.763360"/><trkpt lat="54.493450" lon="-2.763370"/><trkpt lat="54.493290" lon="-2.763530"/><trkpt lat="54.493080" lon="-2.763610"/><trkpt lat="54.492910" lon="-2.763540"/><trkpt lat="54.492840" lon="-2.763480"/><trkpt lat="54.492770" lon="-2.763510"/><trkpt lat="54.492670" lon="-2.763640"/><trkpt lat="54.492590" lon="-2.763690"/><trkpt lat="54.492480" lon="-2.763640"/><trkpt lat="54.492230" lon="-2.763610"/><trkpt lat="54.491920" lon="-2.763640"/><trkpt lat="54.491810" lon="-2.763560"/><trkpt lat="54.491700" lon="-2.763550"/><trkpt lat="54.491540" lon="-2.763670"/><trkpt lat="54.491320" lon="-2.763760"/><trkpt lat="54.491230" lon="-2.763750"/><trkpt lat="54.490990" lon="-2.763810"/><trkpt lat="54.490890" lon="-2.763690"/><trkpt lat="54.490330" lon="-2.763490"/><trkpt lat="54.490020" lon="-2.763420"/><trkpt lat="54.489860" lon="-2.763440"/><trkpt lat="54.489150" lon="-2.763900"/><trkpt lat="54.488770" lon="-2.764330"/><trkpt lat="54.488130" lon="-2.764610"/><trkpt lat="54.487650" lon="-2.764610"/><trkpt lat="54.487260" lon="-2.764440"/><trkpt lat="54.486350" lon="-2.764270"/><trkpt lat="54.485930" lon="-2.764290"/><trkpt lat="54.485340" lon="-2.764620"/><trkpt lat="54.485280" lon="-2.764750"/><trkpt lat="54.485220" lon="-2.764950"/><trkpt lat="54.485030" lon="-2.765260"/><trkpt lat="54.484780" lon="-2.765580"/><trkpt lat="54.484390" lon="-2.765950"/><trkpt lat="54.483990" lon="-2.766530"/><trkpt lat="54.483180" lon="-2.767560"/><trkpt lat="54.483080" lon="-2.767890"/><trkpt lat="54.482810" lon="-2.768130"/><trkpt lat="54.482460" lon="-2.768530"/><trkpt lat="54.482230" lon="-2.768900"/><trkpt lat="54.481960" lon="-2.769070"/><trkpt lat="54.481820" lon="-2.769390"/><trkpt lat="54.481690" lon="-2.769590"/><trkpt lat="54.481530" lon="-2.770100"/><trkpt lat="54.481130" lon="-2.771130"/><trkpt lat="54.480890" lon="-2.771990"/><trkpt lat="54.480510" lon="-2.772840"/><trkpt lat="54.480500" lon="-2.772880"/><trkpt lat="54.480530" lon="-2.773020"/><trkpt lat="54.480430" lon="-2.773300"/><trkpt lat="54.480390" lon="-2.773530"/><trkpt lat="54.480340" lon="-2.773650"/><trkpt lat="54.480220" lon="-2.773810"/><trkpt lat="54.480030" lon="-2.774210"/><trkpt lat="54.479930" lon="-2.774540"/><trkpt lat="54.479830" lon="-2.775160"/><trkpt lat="54.479820" lon="-2.775340"/><trkpt lat="54.479830" lon="-2.776080"/><trkpt lat="54.479790" lon="-2.776360"/><trkpt lat="54.479800" lon="-2.776600"/><trkpt lat="54.479770" lon="-2.776730"/><trkpt lat="54.479720" lon="-2.777340"/><trkpt lat="54.479650" lon="-2.777800"/><trkpt lat="54.479570" lon="-2.778150"/><trkpt lat="54.479320" lon="-2.779040"/><trkpt lat="54.479180" lon="-2.779290"/><trkpt lat="54.478890" lon="-2.779990"/><trkpt lat="54.478770" lon="-2.780180"/><trkpt lat="54.478710" lon="-2.780530"/><trkpt lat="54.478600" lon="-2.780810"/><trkpt lat="54.478530" lon="-2.780850"/><trkpt lat="54.478420" lon="-2.781070"/><trkpt lat="54.478320" lon="-2.780940"/><trkpt lat="54.478200" lon="-2.780980"/><trkpt lat="54.478100" lon="-2.780930"/><trkpt lat="54.477990" lon="-2.780970"/><trkpt lat="54.477930" lon="-2.781090"/><trkpt lat="54.477890" lon="-2.781290"/><trkpt lat="54.477930" lon="-2.781090"/><trkpt lat="54.477990" lon="-2.780970"/><trkpt lat="54.478100" lon="-2.780930"/><trkpt lat="54.478200" lon="-2.780980"/><trkpt lat="54.478320" lon="-2.780940"/><trkpt lat="54.478420" lon="-2.781070"/><trkpt lat="54.478530" lon="-2.780850"/><trkpt lat="54.478600" lon="-2.780810"/><trkpt lat="54.478710" lon="-2.780530"/><trkpt lat="54.478770" lon="-2.780180"/><trkpt lat="54.478890" lon="-2.779990"/><trkpt lat="54.479180" lon="-2.779290"/><trkpt lat="54.479320" lon="-2.779040"/><trkpt lat="54.479570" lon="-2.778150"/><trkpt lat="54.479650" lon="-2.777800"/><trkpt lat="54.479720" lon="-2.777340"/><trkpt lat="54.479770" lon="-2.776730"/><trkpt lat="54.479800" lon="-2.776600"/><trkpt lat="54.479790" lon="-2.776360"/><trkpt lat="54.479830" lon="-2.776080"/><trkpt lat="54.479820" lon="-2.775340"/><trkpt lat="54.479830" lon="-2.775160"/><trkpt lat="54.479930" lon="-2.774540"/><trkpt lat="54.480030" lon="-2.774210"/><trkpt lat="54.480220" lon="-2.773810"/><trkpt lat="54.480340" lon="-2.773650"/><trkpt lat="54.480390" lon="-2.773530"/><trkpt lat="54.480430" lon="-2.773300"/><trkpt lat="54.480530" lon="-2.773020"/><trkpt lat="54.480500" lon="-2.772880"/><trkpt lat="54.480510" lon="-2.772840"/><trkpt lat="54.480500" lon="-2.772740"/><trkpt lat="54.480340" lon="-2.772330"/><trkpt lat="54.480130" lon="-2.772050"/><trkpt lat="54.480110" lon="-2.771920"/><trkpt lat="54.480160" lon="-2.771750"/><trkpt lat="54.480290" lon="-2.771550"/><trkpt lat="54.480600" lon="-2.770880"/><trkpt lat="54.480700" lon="-2.770610"/><trkpt lat="54.480830" lon="-2.770140"/><trkpt lat="54.481080" lon="-2.769340"/><trkpt lat="54.481090" lon="-2.769060"/><trkpt lat="54.481120" lon="-2.768970"/><trkpt lat="54.481280" lon="-2.768650"/><trkpt lat="54.481480" lon="-2.768390"/><trkpt lat="54.481790" lon="-2.767800"/><trkpt lat="54.481850" lon="-2.767640"/><trkpt lat="54.481910" lon="-2.767430"/><trkpt lat="54.482000" lon="-2.766970"/><trkpt lat="54.482090" lon="-2.766770"/><trkpt lat="54.482110" lon="-2.766620"/><trkpt lat="54.482100" lon="-2.766460"/><trkpt lat="54.482130" lon="-2.766220"/><trkpt lat="54.482190" lon="-2.765990"/><trkpt lat="54.482260" lon="-2.765590"/><trkpt lat="54.482270" lon="-2.765380"/><trkpt lat="54.482200" lon="-2.764960"/><trkpt lat="54.482220" lon="-2.764850"/><trkpt lat="54.482390" lon="-2.764530"/><trkpt lat="54.482490" lon="-2.764200"/><trkpt lat="54.482610" lon="-2.763930"/><trkpt lat="54.482910" lon="-2.763560"/><trkpt lat="54.482830" lon="-2.763200"/><trkpt lat="54.482800" lon="-2.762970"/><trkpt lat="54.482680" lon="-2.762650"/><trkpt lat="54.482620" lon="-2.762310"/><trkpt lat="54.482640" lon="-2.762070"/><trkpt lat="54.482600" lon="-2.761070"/><trkpt lat="54.482560" lon="-2.760430"/><trkpt lat="54.482520" lon="-2.760020"/><trkpt lat="54.482430" lon="-2.759590"/><trkpt lat="54.482350" lon="-2.759320"/><trkpt lat="54.482400" lon="-2.758980"/><trkpt lat="54.482470" lon="-2.758770"/><trkpt lat="54.482550" lon="-2.758330"/><trkpt lat="54.482720" lon="-2.757990"/><trkpt lat="54.482830" lon="-2.757910"/><trkpt lat="54.482880" lon="-2.757800"/><trkpt lat="54.482830" lon="-2.757460"/><trkpt lat="54.482780" lon="-2.757380"/><trkpt lat="54.482900" lon="-2.757030"/><trkpt lat="54.483160" lon="-2.756360"/><trkpt lat="54.483250" lon="-2.756210"/><trkpt lat="54.483250" lon="-2.756050"/><trkpt lat="54.483330" lon="-2.755910"/><trkpt lat="54.483470" lon="-2.755750"/><trkpt lat="54.483700" lon="-2.755420"/><trkpt lat="54.483960" lon="-2.754680"/><trkpt lat="54.483980" lon="-2.754510"/><trkpt lat="54.483950" lon="-2.754000"/><trkpt lat="54.483880" lon="-2.753540"/><trkpt lat="54.483870" lon="-2.753350"/><trkpt lat="54.483900" lon="-2.753070"/><trkpt lat="54.483980" lon="-2.752740"/><trkpt lat="54.484030" lon="-2.752210"/><trkpt lat="54.484020" lon="-2.751810"/><trkpt lat="54.484050" lon="-2.751590"/><trkpt lat="54.484100" lon="-2.751420"/><trkpt lat="54.484090" lon="-2.751420"/><trkpt lat="54.484220" lon="-2.750940"/><trkpt lat="54.484330" lon="-2.750720"/><trkpt lat="54.484630" lon="-2.750320"/><trkpt lat="54.484850" lon="-2.749940"/><trkpt lat="54.485130" lon="-2.749610"/><trkpt lat="54.485210" lon="-2.749470"/><trkpt lat="54.485280" lon="-2.749300"/><trkpt lat="54.485440" lon="-2.749030"/><trkpt lat="54.485510" lon="-2.748660"/><trkpt lat="54.485550" lon="-2.748550"/><trkpt lat="54.485830" lon="-2.748260"/><trkpt lat="54.486060" lon="-2.747860"/><trkpt lat="54.486100" lon="-2.747770"/><trkpt lat="54.486310" lon="-2.746730"/><trkpt lat="54.486750" lon="-2.745610"/><trkpt lat="54.487150" lon="-2.744880"/><trkpt lat="54.487280" lon="-2.744470"/><trkpt lat="54.487890" lon="-2.743710"/><trkpt lat="54.487980" lon="-2.743540"/><trkpt lat="54.488020" lon="-2.743320"/><trkpt lat="54.487990" lon="-2.743020"/><trkpt lat="54.488130" lon="-2.742740"/><trkpt lat="54.488160" lon="-2.742700"/><trkpt lat="54.488360" lon="-2.742700"/><trkpt lat="54.488410" lon="-2.742620"/><trkpt lat="54.488450" lon="-2.742620"/><trkpt lat="54.488500" lon="-2.742540"/><trkpt lat="54.488530" lon="-2.742070"/><trkpt lat="54.488680" lon="-2.741770"/><trkpt lat="54.488720" lon="-2.741550"/><trkpt lat="54.488830" lon="-2.741280"/><trkpt lat="54.488950" lon="-2.741060"/><trkpt lat="54.489290" lon="-2.740710"/><trkpt lat="54.489310" lon="-2.740650"/><trkpt lat="54.489380" lon="-2.740400"/><trkpt lat="54.489540" lon="-2.739510"/><trkpt lat="54.489720" lon="-2.738900"/><trkpt lat="54.489710" lon="-2.738750"/><trkpt lat="54.489810" lon="-2.738310"/><trkpt lat="54.490140" lon="-2.736140"/><trkpt lat="54.490210" lon="-2.735850"/><trkpt lat="54.490270" lon="-2.735430"/><trkpt lat="54.490310" lon="-2.735010"/><trkpt lat="54.490490" lon="-2.734240"/><trkpt lat="54.490590" lon="-2.733580"/><trkpt lat="54.490620" lon="-2.732950"/><trkpt lat="54.490690" lon="-2.732550"/><trkpt lat="54.490770" lon="-2.731880"/><trkpt lat="54.490790" lon="-2.730800"/><trkpt lat="54.490950" lon="-2.729770"/><trkpt lat="54.491120" lon="-2.728970"/><trkpt lat="54.491150" lon="-2.728680"/><trkpt lat="54.491150" lon="-2.728250"/><trkpt lat="54.491200" lon="-2.727760"/><trkpt lat="54.491310" lon="-2.726980"/><trkpt lat="54.491430" lon="-2.726340"/><trkpt lat="54.491560" lon="-2.725410"/><trkpt lat="54.491630" lon="-2.725160"/><trkpt lat="54.491740" lon="-2.724860"/><trkpt lat="54.491900" lon="-2.724500"/><trkpt lat="54.492220" lon="-2.723690"/><trkpt lat="54.492470" lon="-2.722860"/><trkpt lat="54.492610" lon="-2.722580"/><trkpt lat="54.492890" lon="-2.722090"/><trkpt lat="54.493300" lon="-2.721310"/><trkpt lat="54.493500" lon="-2.720990"/><trkpt lat="54.493530" lon="-2.720870"/><trkpt lat="54.493960" lon="-2.719850"/><trkpt lat="54.494060" lon="-2.719730"/><trkpt lat="54.494330" lon="-2.719510"/><trkpt lat="54.494440" lon="-2.719380"/><trkpt lat="54.494680" lon="-2.718930"/><trkpt lat="54.494500" lon="-2.719280"/><trkpt lat="54.494460" lon="-2.718930"/><trkpt lat="54.494550" lon="-2.718320"/><trkpt lat="54.494550" lon="-2.718050"/><trkpt lat="54.494490" lon="-2.717330"/><trkpt lat="54.494410" lon="-2.717150"/><trkpt lat="54.494370" lon="-2.716940"/><trkpt lat="54.494350" lon="-2.716530"/><trkpt lat="54.494320" lon="-2.716500"/><trkpt lat="54.494320" lon="-2.716430"/><trkpt lat="54.494460" lon="-2.715950"/><trkpt lat="54.494570" lon="-2.715460"/><trkpt lat="54.494620" lon="-2.715290"/><trkpt lat="54.494910" lon="-2.714710"/><trkpt lat="54.495050" lon="-2.714000"/><trkpt lat="54.495260" lon="-2.712440"/><trkpt lat="54.495300" lon="-2.712260"/><trkpt lat="54.495410" lon="-2.711970"/><trkpt lat="54.495400" lon="-2.711890"/><trkpt lat="54.495370" lon="-2.711880"/><trkpt lat="54.495270" lon="-2.711920"/><trkpt lat="54.495220" lon="-2.711720"/><trkpt lat="54.495250" lon="-2.711180"/><trkpt lat="54.495280" lon="-2.710950"/><trkpt lat="54.495300" lon="-2.710930"/><trkpt lat="54.495500" lon="-2.710480"/><trkpt lat="54.495510" lon="-2.710330"/><trkpt lat="54.495780" lon="-2.709610"/><trkpt lat="54.496420" lon="-2.708330"/><trkpt lat="54.497230" lon="-2.706980"/><trkpt lat="54.497940" lon="-2.706070"/><trkpt lat="54.498440" lon="-2.705600"/><trkpt lat="54.498570" lon="-2.705530"/><trkpt lat="54.498720" lon="-2.705400"/><trkpt lat="54.498790" lon="-2.705280"/><trkpt lat="54.498880" lon="-2.704990"/><trkpt lat="54.499020" lon="-2.704690"/><trkpt lat="54.499210" lon="-2.704490"/><trkpt lat="54.499520" lon="-2.703980"/><trkpt lat="54.499600" lon="-2.703780"/><trkpt lat="54.499710" lon="-2.703440"/><trkpt lat="54.499800" lon="-2.703030"/><trkpt lat="54.499860" lon="-2.702570"/><trkpt lat="54.500110" lon="-2.700280"/><trkpt lat="54.500140" lon="-2.700170"/><trkpt lat="54.500550" lon="-2.699190"/><trkpt lat="54.501080" lon="-2.698070"/><trkpt lat="54.501390" lon="-2.697100"/><trkpt lat="54.502000" lon="-2.695350"/><trkpt lat="54.502290" lon="-2.694200"/><trkpt lat="54.502970" lon="-2.691340"/><trkpt lat="54.502970" lon="-2.690620"/><trkpt lat="54.503280" lon="-2.688490"/><trkpt lat="54.503430" lon="-2.687960"/><trkpt lat="54.503360" lon="-2.687520"/><trkpt lat="54.503370" lon="-2.687240"/><trkpt lat="54.503520" lon="-2.686840"/><trkpt lat="54.503600" lon="-2.686550"/><trkpt lat="54.503610" lon="-2.685380"/><trkpt lat="54.503630" lon="-2.684730"/><trkpt lat="54.503650" lon="-2.684500"/><trkpt lat="54.503790" lon="-2.683830"/><trkpt lat="54.503880" lon="-2.683560"/><trkpt lat="54.504020" lon="-2.683270"/><trkpt lat="54.504280" lon="-2.682960"/><trkpt lat="54.504910" lon="-2.682100"/><trkpt lat="54.505300" lon="-2.681520"/><trkpt lat="54.505580" lon="-2.681320"/><trkpt lat="54.505570" lon="-2.681320"/><trkpt lat="54.505940" lon="-2.681110"/><trkpt lat="54.506030" lon="-2.681020"/><trkpt lat="54.506180" lon="-2.681310"/><trkpt lat="54.506250" lon="-2.681400"/><trkpt lat="54.506380" lon="-2.681340"/><trkpt lat="54.506500" lon="-2.681450"/><trkpt lat="54.506630" lon="-2.681510"/><trkpt lat="54.506990" lon="-2.681510"/><trkpt lat="54.507510" lon="-2.681360"/><trkpt lat="54.508010" lon="-2.681030"/><trkpt lat="54.508170" lon="-2.681050"/><trkpt lat="54.508270" lon="-2.681030"/><trkpt lat="54.508370" lon="-2.680860"/><trkpt lat="54.508410" lon="-2.680650"/><trkpt lat="54.508790" lon="-2.680640"/><trkpt lat="54.509430" lon="-2.681450"/><trkpt lat="54.509900" lon="-2.681670"/><trkpt lat="54.510130" lon="-2.681660"/><trkpt lat="54.510320" lon="-2.681590"/><trkpt lat="54.511150" lon="-2.681530"/><trkpt lat="54.512220" lon="-2.681390"/><trkpt lat="54.512590" lon="-2.681280"/><trkpt lat="54.512840" lon="-2.681170"/><trkpt lat="54.513070" lon="-2.681160"/><trkpt lat="54.513560" lon="-2.681320"/><trkpt lat="54.514350" lon="-2.681240"/><trkpt lat="54.514580" lon="-2.681160"/><trkpt lat="54.514780" lon="-2.681370"/><trkpt lat="54.515070" lon="-2.681830"/><trkpt lat="54.515270" lon="-2.682210"/><trkpt lat="54.515460" lon="-2.682040"/><trkpt lat="54.515600" lon="-2.681730"/><trkpt lat="54.515880" lon="-2.681400"/><trkpt lat="54.516920" lon="-2.681200"/><trkpt lat="54.516890" lon="-2.681060"/><trkpt lat="54.517020" lon="-2.680950"/><trkpt lat="54.517060" lon="-2.680940"/><trkpt lat="54.517110" lon="-2.680960"/><trkpt lat="54.517780" lon="-2.680100"/><trkpt lat="54.518000" lon="-2.680000"/><trkpt lat="54.518080" lon="-2.679930"/><trkpt lat="54.518320" lon="-2.679540"/><trkpt lat="54.518350" lon="-2.679580"/><trkpt lat="54.518940" lon="-2.679980"/><trkpt lat="54.519050" lon="-2.680600"/><trkpt lat="54.520335" lon="-2.679447"/><trkpt lat="54.520360" lon="-2.679410"/><trkpt lat="54.520580" lon="-2.679740"/><trkpt lat="54.520960" lon="-2.680510"/><trkpt lat="54.521030" lon="-2.680570"/><trkpt lat="54.521160" lon="-2.680600"/><trkpt lat="54.521570" lon="-2.680590"/><trkpt lat="54.522170" lon="-2.680380"/><trkpt lat="54.522300" lon="-2.680400"/><trkpt lat="54.522500" lon="-2.680520"/><trkpt lat="54.522650" lon="-2.680650"/><trkpt lat="54.522780" lon="-2.680850"/><trkpt lat="54.522900" lon="-2.680970"/><trkpt lat="54.523050" lon="-2.681080"/><trkpt lat="54.523160" lon="-2.681230"/><trkpt lat="54.523320" lon="-2.681320"/><trkpt lat="54.523530" lon="-2.681500"/><trkpt lat="54.523890" lon="-2.681870"/><trkpt lat="54.524080" lon="-2.681940"/><trkpt lat="54.524410" lon="-2.681930"/><trkpt lat="54.524540" lon="-2.681970"/><trkpt lat="54.524630" lon="-2.682020"/><trkpt lat="54.524830" lon="-2.682220"/><trkpt lat="54.526150" lon="-2.680980"/><trkpt lat="54.526830" lon="-2.680480"/><trkpt lat="54.527580" lon="-2.680100"/><trkpt lat="54.528150" lon="-2.678090"/><trkpt lat="54.528550" lon="-2.676900"/><trkpt lat="54.528590" lon="-2.676950"/><trkpt lat="54.528890" lon="-2.677170"/><trkpt lat="54.528980" lon="-2.677180"/><trkpt lat="54.529160" lon="-2.677360"/><trkpt lat="54.529230" lon="-2.677520"/><trkpt lat="54.529780" lon="-2.677920"/><trkpt lat="54.529890" lon="-2.677580"/><trkpt lat="54.529900" lon="-2.677330"/><trkpt lat="54.529990" lon="-2.676940"/><trkpt lat="54.530710" lon="-2.677440"/></trkseg></trk></gpx>
